[{"center":{"lat":36.72453554325678,"lng":10.329756899488764},"name":"hammem lif","name_ar":"حمام الأنف"},{"center":{"lat":36.59316236948494,"lng":10.278415876094712},"name":"mornag","name_ar":"مرناق"},{"center":{"lat":36.74298258325441,"lng":10.229798431186827},"name":"BenArous","name_ar":"بن عروس"},{"center":{"lat":36.71907400939401,"lng":10.281511962415731},"name":"bou mhel el bassatine","name_ar":"بومهل البساتين"},{"center":{"lat":36.74453000672497,"lng":10.297522253033222},"name":"ez-zahra","name_ar":"الزهراء"},{"center":{"lat":36.66999713124909,"lng":10.071744479416212},"name":"mohamedia","name_ar":"المحمدية"},{"center":{"lat":36.59169710325712,"lng":10.169772337139381},"name":"Khelidia","name_ar":"الخليدية"},{"center":{"lat":36.77480006463975,"lng":10.269488521239156},"name":"rades","name_ar":"رادس"},{"center":{"lat":36.72063965228229,"lng":10.211044490568371},"name":"el mourouj","name_ar":"المروج"},{"center":{"lat":36.718870978001746,"lng":10.146096015534358},"name":"fouchana","name_ar":"فوشانة"},{"center":{"lat":36.692968750589856,"lng":10.361459572442051},"name":"hammem chatt","name_ar":"حمام الشط"},{"center":{"lat":36.77226988671816,"lng":10.23504131827291},"name":"megrine","name_ar":"مقرين"},{"center":{"lat":36.68277458408035,"lng":10.183992434024653},"name":"Nâassen","name_ar":"نعسان"},{"center":{"lat":34.28942038229653,"lng":7.845011371124009},"name":"tameghza","name_ar":"تمغزة"},{"center":{"lat":33.94518365462015,"lng":8.440217192579638},"name":"deguach","name_ar":"دقاش"},{"center":{"lat":33.914596883385855,"lng":8.165189470451663},"name":"Tozeur","name_ar":"توزر"},{"center":{"lat":33.76526047614608,"lng":7.742525048873544},"name":"hazoua","name_ar":"حزوة"},{"center":{"lat":33.824349670944784,"lng":7.938243069816816},"name":"nefta","name_ar":"نفطة"},{"center":{"lat":34.12652211721709,"lng":8.186874117230541},"name":"hamet ejrid","name_ar":"حامة الجريد"},{"center":{"lat":33.34864181331205,"lng":10.424867279628295},"name":"mednine","name_ar":"مدنين"},{"center":{"lat":33.25813166086037,"lng":10.008907831591642},"name":"beni-khedech","name_ar":"بني خداش"},{"center":{"lat":33.39953944252113,"lng":10.95944526728614},"name":"zarzis","name_ar":"جرجيس"},{"center":{"lat":32.837491925630616,"lng":11.100842544058501},"name":"ben guerdane","name_ar":"بن قردان"},{"center":{"lat":33.54057177498539,"lng":11.012658229496347},"name":"zarzis nord","name_ar":"جرجيس الشمالية"},{"center":{"lat":33.53702682286492,"lng":10.51399263528546},"name":"sidi makhlouf","name_ar":"سيدي مخلوف"},{"center":{"lat":33.52467011311326,"lng":10.65379799913006},"name":"bou-ghrara","name_ar":"بوغرارة"},{"center":{"lat":33.75494892426174,"lng":10.820486681273652},"name":"ajim","name_ar":"اجيم"},{"center":{"lat":33.83809757623723,"lng":10.864230556231366},"name":"houmet essouk","name_ar":"حومة السوق"},{"center":{"lat":33.76871164107945,"lng":10.956620968896093},"name":"midoun","name_ar":"ميدون"},{"center":{"lat":35.76286636410849,"lng":10.746689720185422},"name":"Monastir","name_ar":"المنستير"},{"center":{"lat":35.70456741134079,"lng":10.667977558317657},"name":"ouerdanine","name_ar":"الوردانين"},{"center":{"lat":35.72572238263544,"lng":10.7049531528316},"name":"sidi ameur masjed aïssa","name_ar":"سيدي عامر- مسجد عيسى"},{"center":{"lat":35.68551742393959,"lng":10.732356275400477},"name":"menzel harb","name_ar":"مصدور - منزل حرب"},{"center":{"lat":35.67096028302323,"lng":10.855695631728576},"name":"zaouiet kontoch","name_ar":"زاوية قنطش"},{"center":{"lat":35.68915428311876,"lng":10.828043723183333},"name":"ksibet el mediouni","name_ar":"قصيبة المديوني"},{"center":{"lat":35.617180893697366,"lng":10.659720896087322},"name":"menzel kamel","name_ar":"منزل كامل"},{"center":{"lat":35.600225850824785,"lng":10.75371919593799},"name":"jamel","name_ar":"جمال"},{"center":{"lat":35.56128357098805,"lng":10.566146340322154},"name":"menzel hayet","name_ar":"منزل حياة"},{"center":{"lat":35.5718279525094,"lng":10.695389290505204},"name":"zeramdine","name_ar":"زرمدين"},{"center":{"lat":35.52463739624372,"lng":10.71684417836678},"name":"ghnada","name_ar":"غنادة"},{"center":{"lat":35.56465167055121,"lng":10.80965567060087},"name":"beni hassen","name_ar":"بني حسان"},{"center":{"lat":35.570927094707926,"lng":10.854855349437267},"name":"menzel farsi","name_ar":"منزل فارسي"},{"center":{"lat":35.60286371690019,"lng":10.879892078733603},"name":"moknine","name_ar":"المكنين"},{"center":{"lat":35.48107207208682,"lng":10.762596325593215},"name":"amiret touazra","name_ar":"عميرة التوازرة"},{"center":{"lat":35.66706800351912,"lng":10.815438335541083},"name":"benen bodher","name_ar":"بنان بوضر"},{"center":{"lat":35.67880533035198,"lng":10.866228200322428},"name":"bou-hjar","name_ar":"بوحجر"},{"center":{"lat":35.64363241603651,"lng":10.861137316588263},"name":"ksar hlel","name_ar":"قصر هلال"},{"center":{"lat":35.61059870461678,"lng":11.003601837785048},"name":"bekalta","name_ar":"البقالطة"},{"center":{"lat":35.51624942445336,"lng":10.80911853058419},"name":"amiret el hojjaj","name_ar":"عميرة الحجاج"},{"center":{"lat":35.65126896704717,"lng":10.742292350107224},"name":"menzel en-nour","name_ar":"منزل نور"},{"center":{"lat":35.687733254061264,"lng":10.776333177655125},"name":"bembla el manara","name_ar":"بنبلة المنارة"},{"center":{"lat":35.66135528980183,"lng":10.766781762719198},"name":"lamta","name_ar":"لمطة"},{"center":{"lat":35.540059126192865,"lng":10.897315648075523},"name":"sidi bennour","name_ar":"سيدي بنور"},{"center":{"lat":35.523661316331925,"lng":10.851128863576935},"name":"cherahil","name_ar":"شراحيل"},{"center":{"lat":35.75251265178136,"lng":10.69566669235127},"name":"sahline","name_ar":"الساحلين - معتمر"},{"center":{"lat":35.47726649837435,"lng":10.810173903445119},"name":"amiret el fehoul","name_ar":"عميرة الفحول"},{"center":{"lat":35.62502918354243,"lng":10.820793003194723},"name":"touza","name_ar":"طوزة"},{"center":{"lat":35.719313494782746,"lng":10.78712570488021},"name":"khenis","name_ar":"خنيس"},{"center":{"lat":35.64552470091703,"lng":10.949857266834702},"name":"tebolba","name_ar":"طبلبة"},{"center":{"lat":35.667048037448694,"lng":10.897295558063847},"name":"sayada","name_ar":"صيادة"},{"center":{"lat":33.17931786892737,"lng":8.57693311940709},"name":"faouar","name_ar":"الفوار"},{"center":{"lat":33.14126067929892,"lng":9.417718386107556},"name":"douz","name_ar":"دوز"},{"center":{"lat":33.42256607313253,"lng":8.138072026940566},"name":"rejim mâatoug","name_ar":"رجيم معتوق"},{"center":{"lat":33.911789589306096,"lng":9.139898678299932},"name":"Kebili","name_ar":"قبلي"},{"center":{"lat":33.873831727748964,"lng":8.645594243205654},"name":"fatnassa","name_ar":"بشري فطناسة"},{"center":{"lat":33.63213401407681,"lng":8.812648138516124},"name":"bechelli","name_ar":"بشلي جرسين البليدات"},{"center":{"lat":33.50175001864517,"lng":9.012232499434663},"name":"el golaa","name_ar":"القلعة"},{"center":{"lat":33.62398939279794,"lng":9.233215146210895},"name":"jemna","name_ar":"جمنة"},{"center":{"lat":33.97840070431741,"lng":8.914168528898628},"name":"souk el ahed","name_ar":"سوق الأحد"},{"center":{"lat":34.556262044115954,"lng":8.394801888658488},"name":"oum el araies","name_ar":"أم العرائس"},{"center":{"lat":34.49536802343554,"lng":8.825327758631037},"name":"Gafsa","name_ar":"قفصة"},{"center":{"lat":34.35530762669151,"lng":8.214730847630303},"name":"redeyef","name_ar":"الرديف"},{"center":{"lat":34.263125444370495,"lng":8.40627690557968},"name":"metlaoui","name_ar":"المتلوي"},{"center":{"lat":34.57671926335759,"lng":9.177796451474121},"name":"sned","name_ar":"السند"},{"center":{"lat":34.51007642160538,"lng":9.094569690643878},"name":"sanouche","name_ar":"زانوش"},{"center":{"lat":34.438322046605386,"lng":8.894439766952019},"name":"el ksar","name_ar":"القصر"},{"center":{"lat":34.27452397970667,"lng":9.0436657277017},"name":"el guetar","name_ar":"القطار"},{"center":{"lat":34.22307693339816,"lng":8.71700976864813},"name":"mdhila","name_ar":"المظيلة"},{"center":{"lat":34.40306058783444,"lng":8.876385800563632},"name":"lala","name_ar":"لالة"},{"center":{"lat":34.688084132556824,"lng":8.796935319782758},"name":"sidi aïch","name_ar":"سيدي عيش"},{"center":{"lat":34.680964602460556,"lng":8.40387165196394},"name":"sidi boubaker","name_ar":"سيدي بوبكر"},{"center":{"lat":34.37034389040372,"lng":9.371697844229166},"name":"belkhir","name_ar":"بلخير"},{"center":{"lat":31.95839738768226,"lng":10.643523642754328},"name":"dhehbia","name_ar":"ذهيبة"},{"center":{"lat":31.527636800660453,"lng":9.503117315983998},"name":"remada","name_ar":"رمادة"},{"center":{"lat":32.73610500677697,"lng":10.780001532783908},"name":"Tataouine","name_ar":"تطاوين"},{"center":{"lat":32.82095674594109,"lng":10.96184600552418},"name":"smar","name_ar":"الصمار"},{"center":{"lat":33.110912646584126,"lng":10.269207137739379},"name":"ghomrassen","name_ar":"غمراسن"},{"center":{"lat":32.77105287789192,"lng":10.110186750104768},"name":"chenini eddouiret","name_ar":"تطاوين الجنوبية/ شنني الدويرات"},{"center":{"lat":33.195985224442694,"lng":10.423271947649603},"name":"bir lahmar","name_ar":"بئر الأحمر"},{"center":{"lat":36.74102971964992,"lng":8.56520768923948},"name":"khemaïria","name_ar":"الخمايرية"},{"center":{"lat":36.81299149372684,"lng":8.776772146664634},"name":"aïn drahem","name_ar":"عين دراهم"},{"center":{"lat":36.69970332905,"lng":8.764307598822938},"name":"beni m'tir","name_ar":"بني مطير"},{"center":{"lat":36.4863690949897,"lng":8.590319577112336},"name":"oued meliz","name_ar":"وادي مليز"},{"center":{"lat":36.70244216982593,"lng":8.921174870932662},"name":"balta bou aouane","name_ar":"بلطة بوعوان"},{"center":{"lat":36.45910609654109,"lng":8.336110776613397},"name":"ghardimaou","name_ar":"غار الدماء"},{"center":{"lat":36.55317088977144,"lng":8.709501205004734},"name":"Jendouba","name_ar":"جندوبة"},{"center":{"lat":36.55677859646937,"lng":8.424876583672031},"name":"el galaa el mâaden forgassen","name_ar":"القلعة المعدن فرقصان"},{"center":{"lat":36.570100723085986,"lng":8.97029108765765},"name":"bou salem","name_ar":"بوسالم"},{"center":{"lat":36.50087510132924,"lng":8.820175650577609},"name":"ettataouer","name_ar":null},{"center":{"lat":36.65088579758755,"lng":8.552510280540144},"name":"jaouaouada","name_ar":"الجواودة"},{"center":{"lat":36.658477598488425,"lng":8.68834179691401},"name":"fernana","name_ar":"فرنانة"},{"center":{"lat":36.91227071111301,"lng":8.879427124350858},"name":"nadhour","name_ar":"الناظور"},{"center":{"lat":36.901468788093425,"lng":8.743163330384604},"name":"tabarka","name_ar":"طبرقة"},{"center":{"lat":37.162832109159595,"lng":10.069971383350747},"name":"ousja","name_ar":"عوسجة"},{"center":{"lat":37.17507865273789,"lng":10.206496038449664},"name":"ghar el meleh","name_ar":"غار الملح"},{"center":{"lat":37.2093498337687,"lng":10.160371118203264},"name":"rafraf","name_ar":"رفراف"},{"center":{"lat":37.22853008217891,"lng":9.958418487789446},"name":"menzel djemil","name_ar":"منزل جميل"},{"center":{"lat":37.118297635232615,"lng":9.688057969168678},"name":"tinja","name_ar":"تينجة"},{"center":{"lat":37.1322228526937,"lng":9.845547383856825},"name":"menzel bourguiba","name_ar":"منزل بورقيبة"},{"center":{"lat":37.232058173064544,"lng":10.100128344552964},"name":"ras el djebel","name_ar":"رأس الجبل"},{"center":{"lat":37.255376069773696,"lng":10.034867766370386},"name":"metline","name_ar":"ماتلين"},{"center":{"lat":37.256910862666736,"lng":9.66430373640288},"name":"Bizerte","name_ar":"بنزرت"},{"center":{"lat":37.17825790141682,"lng":9.981391716763849},"name":"el alia","name_ar":"العالية"},{"center":{"lat":37.15412999420059,"lng":9.342217660470688},"name":"el hachachna","name_ar":"الحشاشنة"},{"center":{"lat":36.894395688719754,"lng":9.390894063768298},"name":"djoumine","name_ar":"جومين"},{"center":{"lat":37.13090654021538,"lng":9.175347188252054},"name":"sedjnane","name_ar":"سجنان"},{"center":{"lat":37.095751656342955,"lng":9.474571310835287},"name":"ghezala","name_ar":"غزالة"},{"center":{"lat":36.99168833283019,"lng":9.660732914626761},"name":"mateur","name_ar":"ماطر"},{"center":{"lat":37.04546827904606,"lng":9.981622775847312},"name":"utique","name_ar":"أوتيك"},{"center":{"lat":37.236183800881015,"lng":9.874187079605573},"name":"menzel abderrahmen","name_ar":"منزل عبد الرحمان"},{"center":{"lat":33.82867576199061,"lng":9.670096827075756},"name":"el hamma","name_ar":"الحامة"},{"center":{"lat":34.18558160028938,"lng":9.560074191496252},"name":"menzel el habib","name_ar":"منزل الحبيب"},{"center":{"lat":33.41233267692938,"lng":10.066347840820633},"name":"dekhilet toujane","name_ar":"دخيلة توجان"},{"center":{"lat":33.6316732501696,"lng":9.962247010591192},"name":"nouvelle matmata","name_ar":"مطماطة الجديدة"},{"center":{"lat":33.73065229287011,"lng":10.194743086876517},"name":"ketana","name_ar":"كتانة"},{"center":{"lat":33.78597317941377,"lng":10.03701667200237},"name":"teboulbou","name_ar":"طبلبو"},{"center":{"lat":33.570192649017024,"lng":10.249758218749399},"name":"mareth","name_ar":"مارث"},{"center":{"lat":33.68690535372238,"lng":10.356767818971626},"name":"ezzarat","name_ar":"الزارات"},{"center":{"lat":33.476780603799995,"lng":9.760252285313172},"name":"matmata","name_ar":"مطماطة"},{"center":{"lat":34.09740124447714,"lng":9.886626051921926},"name":"ouedhref","name_ar":"وذرف"},{"center":{"lat":34.04824429529345,"lng":9.946002984502094},"name":"el metouia","name_ar":"المطوية"},{"center":{"lat":33.86495532919942,"lng":9.942869570431274},"name":"chenini nahal","name_ar":"شنني - نحال"},{"center":{"lat":33.89881818355079,"lng":9.961428554561254},"name":"bou-chemma","name_ar":"بوشمة"},{"center":{"lat":33.946289449593294,"lng":9.987682044128997},"name":"ghanouch","name_ar":"غنوش"},{"center":{"lat":33.94597428137858,"lng":10.061895447551981},"name":"Gabes","name_ar":"قابس"},{"center":{"lat":33.928203977308115,"lng":9.497410128923505},"name":"habib thameur","name_ar":"الحبيب ثامر بوعطوش"},{"center":{"lat":36.91985274886565,"lng":10.267093174649592},"name":"la marsa","name_ar":"المرسى"},{"center":{"lat":36.85893706413552,"lng":10.286663609165823},"name":"le kram","name_ar":"الكرم"},{"center":{"lat":36.844997180789605,"lng":10.122960826402423},"name":"le bardo","name_ar":"باردو"},{"center":{"lat":36.75941287892812,"lng":10.07058017001168},"name":"sidi hassine","name_ar":"سيدي حسين"},{"center":{"lat":36.84606215996981,"lng":10.312161666120758},"name":"carthage","name_ar":"قرطاج"},{"center":{"lat":36.87438858197814,"lng":10.333580340834118},"name":"sidi bou saïd","name_ar":"سيدي بوسعيد"},{"center":{"lat":36.852451515565974,"lng":10.25976275946974},"name":"la goulette","name_ar":"حلق الوادي"},{"center":{"lat":36.81141304795908,"lng":10.114230247258146},"name":"Tunis","name_ar":"تونس"},{"center":{"lat":35.51063329869716,"lng":10.904880946845683},"name":"el hekaima","name_ar":"الحكايمة"},{"center":{"lat":35.52970738846909,"lng":11.003161326294158},"name":"Mahdia","name_ar":"المهدية"},{"center":{"lat":35.48628317612639,"lng":11.024002087184975},"name":"rejiche","name_ar":"الرجيش"},{"center":{"lat":35.34000712963581,"lng":10.743550026619936},"name":"talalsa","name_ar":"تلاسة"},{"center":{"lat":35.44940926689959,"lng":10.757970270299303},"name":"bou merdes","name_ar":"بومرداس"},{"center":{"lat":35.33185532862491,"lng":10.991123370869357},"name":"el bradâa","name_ar":"البرادعة"},{"center":{"lat":35.232413841337454,"lng":11.06821535925874},"name":"chebba","name_ar":"الشابة"},{"center":{"lat":35.25439689008253,"lng":10.86745381040836},"name":"zalba","name_ar":"زالبة"},{"center":{"lat":35.33872097001952,"lng":10.569664270746308},"name":"essouassi","name_ar":"السواسي"},{"center":{"lat":35.43671709991112,"lng":10.632037107116396},"name":"kerker","name_ar":"كركر"},{"center":{"lat":35.296906332153476,"lng":10.266575320225787},"name":"hebira","name_ar":"هبيرة"},{"center":{"lat":35.238050515090784,"lng":10.42731885738095},"name":"chorbane","name_ar":"شربان"},{"center":{"lat":35.37925549744198,"lng":10.459940720214092},"name":"sidi zid","name_ar":"أولاد سيدي زيد"},{"center":{"lat":35.48662187900792,"lng":10.313426580177863},"name":"ouled chamekh","name_ar":"أولاد شامخ"},{"center":{"lat":35.397001001359506,"lng":10.874911349186444},"name":"sidi alouane","name_ar":"سيدي علوان"},{"center":{"lat":35.43866155061181,"lng":10.955959864616013},"name":"ksour essaf","name_ar":"قصور الساف"},{"center":{"lat":35.19411656718611,"lng":10.99686710710044},"name":"melloulech","name_ar":"ملولش"},{"center":{"lat":35.33031482474695,"lng":10.658862545210646},"name":"el djem","name_ar":"الجم"},{"center":{"lat":35.73520331998506,"lng":9.101878148321717},"name":"er-rouhia","name_ar":"الروحية"},{"center":{"lat":35.60999138117651,"lng":9.28579866840634},"name":"el hababsa","name_ar":"الحبابسة"},{"center":{"lat":36.26771809332867,"lng":9.342656887722207},"name":"gâafour","name_ar":"قعفور"},{"center":{"lat":36.327643761493015,"lng":9.596446649747449},"name":"bouarada","name_ar":"بوعرادة"},{"center":{"lat":36.37081436723301,"lng":9.437552322937691},"name":"el aroussa","name_ar":"العروسة"},{"center":{"lat":36.203197972470576,"lng":9.131664485949464},"name":"bourouis","name_ar":"بورويس"},{"center":{"lat":36.355363319208315,"lng":9.102510999518788},"name":"el krib","name_ar":"الكريب"},{"center":{"lat":36.04898062983921,"lng":9.313821030339735},"name":"Siliana","name_ar":"سليانة"},{"center":{"lat":35.97151521140701,"lng":9.411569352117446},"name":"sidi morched","name_ar":"سيدي مرشد"},{"center":{"lat":35.885090109053365,"lng":9.157547809754618},"name":"makthar","name_ar":"مكثر"},{"center":{"lat":36.11011171593175,"lng":9.608329513400683},"name":"bargou","name_ar":"برقو"},{"center":{"lat":35.821261678390655,"lng":9.366016811054244},"name":"kesra","name_ar":"كسرى"},{"center":{"lat":36.90929137853712,"lng":10.865625671618865},"name":"tazaghrane","name_ar":"تزغران - زاوية المقايز"},{"center":{"lat":37.0113586278604,"lng":10.984616417258092},"name":"el haouaria","name_ar":"الهوارية"},{"center":{"lat":36.8880914769319,"lng":11.0079096333965},"name":"azmour","name_ar":"أزمور"},{"center":{"lat":36.89187978414564,"lng":11.091011405141401},"name":"hammam el guezaz","name_ar":"حمام الغزاز"},{"center":{"lat":36.78498044204433,"lng":10.881106144859551},"name":"menzel horr","name_ar":"منزل حر"},{"center":{"lat":36.79329815936081,"lng":10.693696469441107},"name":"takelsa","name_ar":"تاكلسة"},{"center":{"lat":36.7074060942801,"lng":10.654841606718083},"name":"menzel bou zelfa","name_ar":"منزل بوزلفة"},{"center":{"lat":36.724762843252584,"lng":10.852443921379928},"name":"el mida","name_ar":"الميدة"},{"center":{"lat":36.71506852707609,"lng":10.460707932371353},"name":"soliman","name_ar":"سليمان"},{"center":{"lat":36.529956717191865,"lng":10.570532877328843},"name":"bou argoub","name_ar":"بوعرقوب"},{"center":{"lat":36.62867222389468,"lng":10.640736750966553},"name":"beni khalled","name_ar":"بني خلاد"},{"center":{"lat":36.63609423695945,"lng":10.810983837852444},"name":"korba","name_ar":"قربة"},{"center":{"lat":36.52108454601228,"lng":10.703102659148517},"name":"dar châabane","name_ar":"دار شعبان"},{"center":{"lat":36.4949136527804,"lng":10.804085042395563},"name":"el mâamoura","name_ar":"المعمورة"},{"center":{"lat":36.54538882863321,"lng":10.840663910070745},"name":"tazerka","name_ar":"تازركة"},{"center":{"lat":36.50983462950899,"lng":10.754735248189684},"name":"beni khiar","name_ar":"بني خيار"},{"center":{"lat":36.40293656960526,"lng":10.593733376980179},"name":"hammamet","name_ar":"الحمامات"},{"center":{"lat":36.48575825172317,"lng":10.689497912884427},"name":"Nabeul","name_ar":"نابل"},{"center":{"lat":36.61841506332004,"lng":10.585584422367209},"name":"zaouiet djedidi","name_ar":"زاوية الجديدي"},{"center":{"lat":36.95905629517379,"lng":11.060282553405614},"name":"dar allouch","name_ar":"دار علوش"},{"center":{"lat":36.83084773890648,"lng":10.964099730482715},"name":"menzel temim","name_ar":"منزل تميم"},{"center":{"lat":36.686436392560296,"lng":10.509707632333853},"name":"bou charray ech-cherifet","name_ar":"الشريفات-بوشراي"},{"center":{"lat":36.612446536719204,"lng":10.409899638227527},"name":"fondouk djedid","name_ar":"فندق الجديد-سلتان"},{"center":{"lat":36.842142151621246,"lng":11.074135629868074},"name":"kelibia","name_ar":"قليبية"},{"center":{"lat":36.78484407826501,"lng":10.566720149650324},"name":"korbus","name_ar":"قربص"},{"center":{"lat":36.44225258529605,"lng":10.433053523006924},"name":"sidi djedidi","name_ar":"سيدي الجديدي"},{"center":{"lat":36.57481733072355,"lng":10.453031225757751},"name":"grombalia","name_ar":"قرمبالية"},{"center":{"lat":36.56016025891154,"lng":10.757929813145818},"name":"somâa","name_ar":"الصمعة"},{"center":{"lat":37.0761232553797,"lng":9.047513851841202},"name":"nefza","name_ar":"نفزة"},{"center":{"lat":36.95296356991724,"lng":9.097767316254178},"name":"ouachtata","name_ar":"وشتاتة الجميلة"},{"center":{"lat":36.824891409195466,"lng":9.032194754367147},"name":"zahret medien","name_ar":"زهرة مدين"},{"center":{"lat":36.83468984010568,"lng":9.226955309441117},"name":"Beja","name_ar":"باجة"},{"center":{"lat":36.692296704012726,"lng":9.177404750854851},"name":"el mâagoula","name_ar":"المعقولة"},{"center":{"lat":36.603348862536066,"lng":9.149044049344614},"name":"sidi smaîl","name_ar":"سيدي اسماعيل"},{"center":{"lat":36.6098968834829,"lng":9.367282026123156},"name":"testour","name_ar":"تستور"},{"center":{"lat":36.71812484167546,"lng":9.591922923353852},"name":"medjez el bab","name_ar":"مجاز الباب"},{"center":{"lat":36.573546933735706,"lng":9.666848107506272},"name":"goubellat","name_ar":"قبلاط"},{"center":{"lat":36.569822419085774,"lng":9.50240088791752},"name":"es-slouguia","name_ar":"السلوقية"},{"center":{"lat":36.52093447787614,"lng":9.085524993158426},"name":"tibar","name_ar":"تيبار"},{"center":{"lat":36.486396447734485,"lng":9.21584639903146},"name":"teboursouk","name_ar":"تبرسق"},{"center":{"lat":35.952066303530856,"lng":10.430251911387527},"name":"sidi bou ali","name_ar":"سيدي بوعلي"},{"center":{"lat":35.84071651545757,"lng":10.429806818319046},"name":"kalâa kebira","name_ar":"القلعة الكبرى"},{"center":{"lat":35.61495956941701,"lng":10.405882856814122},"name":"sidi el heni","name_ar":"سيدي الهاني"},{"center":{"lat":35.79112540283626,"lng":10.550305551006119},"name":"ezzouhour","name_ar":"الزهور"},{"center":{"lat":35.653213970063106,"lng":10.507595472919613},"name":"msaken","name_ar":"مساكن"},{"center":{"lat":35.8072738166623,"lng":10.616901398850427},"name":"Sousse","name_ar":"سوسة"},{"center":{"lat":35.8635906416783,"lng":10.58111099442645},"name":"akouda","name_ar":"أكودة"},{"center":{"lat":35.75096539924992,"lng":10.463092049436128},"name":"kalâa seghira","name_ar":"القلعة الصغرى"},{"center":{"lat":35.91815410329712,"lng":10.545916399759905},"name":"chott meriam","name_ar":"شط مريم"},{"center":{"lat":35.76624805779838,"lng":10.594207762197499},"name":"Messaadine","name_ar":"المسعدين"},{"center":{"lat":35.8487974195876,"lng":10.61067884571328},"name":"hammam Sousse","name_ar":"حمام سوسة"},{"center":{"lat":36.28226827130297,"lng":10.419262284477453},"name":"bouficha","name_ar":"بوفيشة"},{"center":{"lat":35.77279879627524,"lng":10.621737526136329},"name":"zaouit Sousse","name_ar":"زاوية سوسة"},{"center":{"lat":35.7272879240729,"lng":10.602760199901885},"name":"ksibet thrayet","name_ar":"قصيبة الثريات"},{"center":{"lat":36.14756096238618,"lng":10.357160518057455},"name":"enfidha","name_ar":"النفيضة"},{"center":{"lat":36.08829561765265,"lng":10.271204580549522},"name":"gerimet","name_ar":"القريمات هيشر"},{"center":{"lat":36.015390342220186,"lng":10.451436659751602},"name":"hergla","name_ar":"هرقلة"},{"center":{"lat":35.88867955950896,"lng":10.254635318293786},"name":"kondar","name_ar":"كندار"},{"center":{"lat":37.0159483874377,"lng":10.108097585414061},"name":"Kalaat El Andalous","name_ar":"قلعة الأندلس"},{"center":{"lat":36.92773299646079,"lng":10.016659210218432},"name":"Sidi Thabet","name_ar":"سيدي ثابت"},{"center":{"lat":36.943513362119205,"lng":10.1630313285518},"name":"Raoued","name_ar":"رواد"},{"center":{"lat":36.87959571199945,"lng":10.163716266660906},"name":"Ariana","name_ar":"أريانة"},{"center":{"lat":36.892778738153694,"lng":10.229735900652141},"name":"Soukra","name_ar":"سكرة"},{"center":{"lat":36.874765351097054,"lng":10.083428179120789},"name":"El Mnihla","name_ar":"المنيهلة"},{"center":{"lat":36.84559728326501,"lng":10.081266447414174},"name":"Ettadhamen","name_ar":"التضامن"},{"center":{"lat":36.792728594469054,"lng":9.729299747796976},"name":"el battane","name_ar":"البطان"},{"center":{"lat":36.88857598387548,"lng":9.712169994037474},"name":"tebourba","name_ar":"طبربة"},{"center":{"lat":36.870021575168956,"lng":9.901956925540429},"name":"djedaïda","name_ar":"الجديدة"},{"center":{"lat":36.830578273334886,"lng":10.068100720372573},"name":"den-den","name_ar":"الدندان"},{"center":{"lat":36.85664301777379,"lng":10.042829994281634},"name":"douar hicher","name_ar":"دوار هيشر"},{"center":{"lat":36.74359819864959,"lng":9.998248300574245},"name":"mornaguia","name_ar":"المرناقية"},{"center":{"lat":36.70542914222265,"lng":9.914379135436853},"name":"el bassatine","name_ar":"البساتين"},{"center":{"lat":36.697549897001636,"lng":9.82385468589188},"name":"borj el amri","name_ar":"برج العامري"},{"center":{"lat":36.84686058437241,"lng":9.992161096714007},"name":"oued ellil","name_ar":"وادي الليل"},{"center":{"lat":36.829941896529434,"lng":10.038976285588035},"name":"Manouba","name_ar":"منوبة"},{"center":{"lat":34.34279025566154,"lng":9.933791440316416},"name":"skhira","name_ar":"الصخيرة"},{"center":{"lat":34.692621541291146,"lng":10.022506730549626},"name":"bir ali ben khelifa","name_ar":"بئر علي بن خليفة"},{"center":{"lat":34.718798263748695,"lng":10.435910783800907},"name":"agareb","name_ar":"عقارب"},{"center":{"lat":34.6745056025414,"lng":10.594900756840296},"name":"el hajeb","name_ar":"الحاجب"},{"center":{"lat":34.71318707964396,"lng":10.717661699040486},"name":"Sfax","name_ar":"صفاقس"},{"center":{"lat":34.822715930208716,"lng":10.788899672805233},"name":"sakiet eddaier","name_ar":"ساقية الداير"},{"center":{"lat":34.84458886995603,"lng":10.67696494881896},"name":"sakiet ezzit","name_ar":"ساقية الزيت"},{"center":{"lat":34.46698376008112,"lng":10.188468310667208},"name":"el ghraiba","name_ar":"الغريبة"},{"center":{"lat":34.745942793248005,"lng":10.644624492346306},"name":"el aïn","name_ar":"العين"},{"center":{"lat":34.75934883375264,"lng":10.661394278186908},"name":"gremda","name_ar":"قرمدة"},{"center":{"lat":34.81401887076467,"lng":10.606814645092406},"name":"el aouabed khazanet","name_ar":"العوابد الخزانات"},{"center":{"lat":34.5037459862253,"lng":10.404273999729934},"name":"mahres","name_ar":"المحرص"},{"center":{"lat":35.04378282989029,"lng":10.946344456512364},"name":"hazeg el louza","name_ar":"حزق اللوزة"},{"center":{"lat":35.07362595467022,"lng":10.564306003153298},"name":"el achech","name_ar":"العشاش بوجربوع"},{"center":{"lat":34.91653547442066,"lng":10.83795909076919},"name":"el amra","name_ar":"العامرة"},{"center":{"lat":34.63480528110764,"lng":10.626699735935064},"name":"tina","name_ar":"طينة"},{"center":{"lat":34.72192745854402,"lng":11.14292331361934},"name":"kerkenah","name_ar":"قرقنة"},{"center":{"lat":34.769731213608836,"lng":10.671329520063608},"name":"chihia","name_ar":"شيحية"},{"center":{"lat":34.81617575707817,"lng":10.130035963579036},"name":"en-nadhour sidi ali belabed","name_ar":"الناظور - سيدي علي"},{"center":{"lat":34.984517531336664,"lng":10.33889439048906},"name":"menzel chaker","name_ar":"منزل شاكر"},{"center":{"lat":35.16829760986627,"lng":10.70710716468891},"name":"el hencha","name_ar":"الحنشة"},{"center":{"lat":34.98948720739368,"lng":10.719513820680202},"name":"en-nasr","name_ar":"النصر"},{"center":{"lat":35.09777908865698,"lng":10.832056857900646},"name":"djebeniana","name_ar":"جبنيانة"},{"center":{"lat":36.43155110976315,"lng":10.175152237570703},"name":"Zaghouan","name_ar":"زغوان"},{"center":{"lat":36.585321408487474,"lng":10.021721297521488},"name":"jebel oust","name_ar":"جبل الوسط"},{"center":{"lat":36.35574026613997,"lng":9.899334037336928},"name":"el fahs","name_ar":"الفحص"},{"center":{"lat":36.50106680693084,"lng":9.891895569394254},"name":"bir m'chergua","name_ar":"بئر المشارقة"},{"center":{"lat":36.240679567813274,"lng":9.7663583458754},"name":"el amiem","name_ar":"العمايم"},{"center":{"lat":36.134964922242816,"lng":9.992923739394538},"name":"en nadhour","name_ar":"الناظور"},{"center":{"lat":36.33154015706232,"lng":10.200174809930306},"name":"ez zeriba","name_ar":"الزريبة"},{"center":{"lat":36.23474269190184,"lng":10.120774258311263},"name":"saouef","name_ar":"صواف"},{"center":{"lat":35.71060825900696,"lng":10.130308020325758},"name":"Kairouan","name_ar":"القيروان"},{"center":{"lat":35.7119825398823,"lng":9.917505614354234},"name":"echbika","name_ar":"الشبيكة"},{"center":{"lat":35.79910137285029,"lng":9.771839517551644},"name":"aîn djeloula","name_ar":"عين جلولة"},{"center":{"lat":35.69098734182028,"lng":9.70471430899596},"name":"hafouz","name_ar":"حفوز"},{"center":{"lat":35.63964528630581,"lng":9.457882693789148},"name":"el alâa","name_ar":"العلا"},{"center":{"lat":35.514866442526674,"lng":9.540548172320447},"name":"chaouachi","name_ar":"شواشي"},{"center":{"lat":35.5339227655625,"lng":9.701483752580328},"name":"el aîn el beidha","name_ar":"عين البيضاء"},{"center":{"lat":35.56501700870241,"lng":9.905236261538196},"name":"abida","name_ar":"عبيدة"},{"center":{"lat":35.5609597236065,"lng":10.078039391237466},"name":"El Ooueslatia","name_ar":"الوسلاتية"},{"center":{"lat":35.42628513729458,"lng":10.05049620795824},"name":"bouhajla","name_ar":"بوحجلة"},{"center":{"lat":35.43454371407444,"lng":9.807074146284025},"name":"menzel mhiri","name_ar":"منزل المهيري"},{"center":{"lat":35.36506809379115,"lng":9.593713514855997},"name":"hajeb el ayoun","name_ar":"حاجب العيون"},{"center":{"lat":35.31179240640143,"lng":10.057717618235245},"name":"jehina","name_ar":"جهينة"},{"center":{"lat":35.27485502356759,"lng":9.823751719957997},"name":"nasrallah","name_ar":"نصر الله"},{"center":{"lat":35.2243902271493,"lng":10.090482913377095},"name":"cheraitia","name_ar":"الشرايطية - القصور"},{"center":{"lat":35.11626860315607,"lng":10.068093354193504},"name":"echrarda","name_ar":"الشراردة"},{"center":{"lat":35.93730506330646,"lng":9.97510464119012},"name":"sbikha","name_ar":"السبيخة"},{"center":{"lat":36.0266981874315,"lng":10.132865092602795},"name":"sisseb","name_ar":"سيسب الدريعات"},{"center":{"lat":35.89172190566778,"lng":9.65362245521586},"name":"rakada","name_ar":"رقادة"},{"center":{"lat":36.31971022112387,"lng":8.677433856052385},"name":"touiref","name_ar":"الطويرف"},{"center":{"lat":36.351681512902005,"lng":8.821299074151177},"name":"nebeur","name_ar":"نبر"},{"center":{"lat":36.176182519686904,"lng":8.465217266922043},"name":"sakiet sidi youssef","name_ar":"ساقية سيدي يوسف"},{"center":{"lat":35.81574508890809,"lng":8.410804886769132},"name":"kalâat snan","name_ar":"قلعة سنان"},{"center":{"lat":36.161203357057026,"lng":8.621552462205443},"name":"kef","name_ar":"الكاف"},{"center":{"lat":35.9456322212087,"lng":8.82345898209623},"name":"dahmani","name_ar":"الدهماني"},{"center":{"lat":36.19418698788289,"lng":8.870360084306958},"name":"zâafrane dyr el kef","name_ar":"زعفران دير الكاف"},{"center":{"lat":35.922629681100254,"lng":8.46886099611611},"name":"menzel salem","name_ar":"منزل سالم"},{"center":{"lat":36.00158682241094,"lng":8.571075590585716},"name":"tajerouine","name_ar":"تاجروين"},{"center":{"lat":36.0878508013331,"lng":8.92500872265772},"name":"es-sers","name_ar":"السرس"},{"center":{"lat":35.847257536284914,"lng":8.93486409873967},"name":"el ksour","name_ar":"القصور"},{"center":{"lat":35.74901007166608,"lng":8.531242693171851},"name":"kalâat khasba","name_ar":"القلعة الخصباء"},{"center":{"lat":35.83821212206429,"lng":8.645423917682162},"name":"djerissa","name_ar":"الجريصة"},{"center":{"lat":36.32348839278693,"lng":8.882252758143135},"name":"bahra","name_ar":"بهرة"},{"center":{"lat":36.0393612032511,"lng":9.055835324163144},"name":"el marja","name_ar":"المرجى"},{"center":{"lat":34.84473282140017,"lng":9.797427044199853},"name":"regueb","name_ar":"الرقاب"},{"center":{"lat":34.892394147795684,"lng":9.558536656912695},"name":"souk jedid","name_ar":"سوق الجديد"},{"center":{"lat":35.0113349839738,"lng":9.380877474243032},"name":"SidiBouzid","name_ar":"سيدي بوزيد"},{"center":{"lat":35.02611640961052,"lng":9.602369992505512},"name":"el ahouaz","name_ar":"الاحواز لسودة"},{"center":{"lat":35.27043888196789,"lng":9.42322668514924},"name":"jilma","name_ar":"جلمة"},{"center":{"lat":35.15918934095768,"lng":9.624706152424025},"name":"bennour","name_ar":"الفائض بنور"},{"center":{"lat":35.42064786439505,"lng":9.34742643969641},"name":"baten elghezel","name_ar":"باطن الغزال"},{"center":{"lat":35.2451478104345,"lng":9.267822021178697},"name":"cebalet ouled asker","name_ar":"سبالة أولاد عسكر"},{"center":{"lat":34.971014362033515,"lng":9.268316735784179},"name":"bir el hafey","name_ar":"بئر الحفي"},{"center":{"lat":34.6503645703082,"lng":9.408566084009315},"name":"menzel bouzaïane","name_ar":"منزل بوزيان"},{"center":{"lat":34.66266856990388,"lng":9.640720719058672},"name":"meknassy","name_ar":"المكناسي"},{"center":{"lat":34.47883943775717,"lng":9.75761016938194},"name":"mezzouna","name_ar":"مزونة"},{"center":{"lat":34.837611636399885,"lng":9.346917338578631},"name":"rahal","name_ar":"رحال"},{"center":{"lat":34.789550195867086,"lng":9.009724535206363},"name":"el mansoura","name_ar":"المنصورة"},{"center":{"lat":35.110082016125645,"lng":9.847436123781161},"name":"ouled haffouz","name_ar":"أولاد حفوز"},{"center":{"lat":34.975230569879834,"lng":9.91921755508455},"name":"essaïda","name_ar":"سعيدة"},{"center":{"lat":34.84032464251901,"lng":9.181993357290303},"name":"sidi ali ben aoun","name_ar":"سيدي علي بن عون"},{"center":{"lat":35.201795540938825,"lng":8.795696859245437},"name":"ennour","name_ar":"النور"},{"center":{"lat":35.49068680962186,"lng":8.879798943014105},"name":"el ayoun","name_ar":"العيون"},{"center":{"lat":35.32822892851005,"lng":8.989696478912087},"name":"ech-chraya machrek ech-chams","name_ar":"الشرائع مشرق الشمس"},{"center":{"lat":35.48597270792535,"lng":9.192368561816728},"name":"aïn el khemaïssia","name_ar":"عين الخمايسية"},{"center":{"lat":35.66068047173732,"lng":8.927946981401533},"name":"djedeliane","name_ar":"جدليان"},{"center":{"lat":35.58671827929433,"lng":8.698842664766637},"name":"thala","name_ar":"تالة"},{"center":{"lat":35.54811963141123,"lng":8.49856140501645},"name":"hidra","name_ar":"حيدرة"},{"center":{"lat":34.90560594006085,"lng":8.457207517274036},"name":"feriana","name_ar":"فريانة"},{"center":{"lat":35.114329461168914,"lng":8.478491343763544},"name":"telept","name_ar":"تلابت"},{"center":{"lat":34.77645561137805,"lng":8.554461489896424},"name":"majel bel abbes","name_ar":"ماجل بلعباس"},{"center":{"lat":35.20442146273741,"lng":9.140522557373238},"name":"sbeitla","name_ar":"سبيطلة"},{"center":{"lat":35.548173155200004,"lng":9.07844190924035},"name":"sbiba","name_ar":"سبيبة"},{"center":{"lat":35.379795791034766,"lng":8.52449898690175},"name":"foussana","name_ar":"فوسانة"},{"center":{"lat":34.97094834824843,"lng":8.926008045137946},"name":"hassi el ferid","name_ar":"حاسي الفريد"},{"center":{"lat":35.09446280145387,"lng":8.681394118818476},"name":"Kasserine","name_ar":"القصرين"},{"center":{"lat":35.17564263218782,"lng":8.88449399516947},"name":"bouzguam","name_ar":"بوزقام"},{"center":{"lat":35.11138269556935,"lng":9.184395107610207},"name":"errakhmet","name_ar":"الرخمات"},{"center":{"lat":35.18921388572834,"lng":8.829952284217521},"name":"Ezzouhour","name_ar":"الزهور"},{"center":{"lat":35.29675548466403,"lng":8.568429592276134},"name":"khmouda","name_ar":"خمودة"}]